[{"OBJECT_NAME":"STARLINK-35051","OBJECT_ID":"2025-191B","EPOCH":"2026-03-09T15:17:21.278112","MEAN_MOTION":15.05650082,"ECCENTRICITY":0.0002487,"INCLINATION":97.6019,"RA_OF_ASC_NODE":301.507,"ARG_OF_PERICENTER":67.5466,"MEAN_ANOMALY":292.6024,"EPHEMERIS_TYPE":0,"CLASSIFICATION_TYPE":"U","NORAD_CAT_ID":65380,"ELEMENT_SET_NO":999,"REV_AT_EPOCH":3027,"BSTAR":0.0001986,"MEAN_MOTION_DOT":2.806e-5,"MEAN_MOTION_DDOT":0},{"OBJECT_NAME":"CZ-6A DEB","OBJECT_ID":"2022-151BY","EPOCH":"2026-03-09T19:54:31.094784","MEAN_MOTION":14.84736827,"ECCENTRICITY":0.00926882,"INCLINATION":98.6307,"RA_OF_ASC_NODE":160.4734,"ARG_OF_PERICENTER":65.7458,"MEAN_ANOMALY":295.3404,"EPHEMERIS_TYPE":0,"CLASSIFICATION_TYPE":"U","NORAD_CAT_ID":54329,"ELEMENT_SET_NO":999,"REV_AT_EPOCH":17696,"BSTAR":0.0019746466,"MEAN_MOTION_DOT":0.00018045,"MEAN_MOTION_DDOT":0}]
